KUIPER-00221            
1 67147U 25301Q   26008.25455640  .00018357  00000+0  52124-3 0  9993
2 67147  51.8719 357.2069 0005000 151.6369 208.4890 15.36234817  4449
KUIPER-00232            
1 67148U 25301R   26008.24020441  .00031233  00000+0  85349-3 0  9993
2 67148  51.8744 357.1120 0002324  83.6886 276.4365 15.37116304  4442
KUIPER-00241            
1 67149U 25301S   26008.24691499  .00018934  00000+0  52930-3 0  9994
2 67149  51.8741 357.1548 0002840 127.2673 232.8573 15.36706035  4774
KUIPER-00245            
1 67150U 25301T   26008.25003472 -.00674794  00000+0 -23989-1 0  9999
2 67150  51.8748 357.3161 0007294 162.6158 119.1800 15.30888287  3925
KUIPER-00246            
1 67151U 25301U   26008.25118146  .00018881  00000+0  53224-3 0  9999
2 67151  51.8734 357.1842 0004015 149.9889 210.1328 15.36445549  4465
KUIPER-00247            
1 67152U 25301V   26008.28062250  .00023762  00000+0  70958-3 0  9994
2 67152  51.8650 357.3647 0011153 193.4871 166.5818 15.34434766  4447
KUIPER-00248            
1 67153U 25301W   26008.26975563  .00024942  00000+0  72715-3 0  9997
2 67153  51.8689 357.3011 0008421 178.3819 181.7195 15.35187449  4613
KUIPER-00249            
1 67154U 25301X   26008.26709566  .00025321  00000+0  72969-3 0  9999
2 67154  51.8663 357.2817 0008448 177.2166 182.8868 15.35542301  4443
KUIPER-00250            
1 67155U 25301Y   26008.25942225  .00025638  00000+0  72698-3 0  9990
2 67155  51.8718 357.2380 0006644 166.4240 193.6926 15.36054168  4477
KUIPER-00251            
1 67156U 25301Z   26008.26919643  .00018794  00000+0  55165-3 0  9995
2 67156  51.8676 357.2959 0008997 175.0904 185.0171 15.35150846  4633
KUIPER-00252            
1 67157U 25301AA  26008.27623171  .00018220  00000+0  54072-3 0  9995
2 67157  51.8673 357.3398 0009796 187.6363 172.4475 15.34819445  4447
KUIPER-00261            
1 67158U 25301AB  26008.32364852  .00009151  00000+0  26711-3 0  9992
2 67158  51.8701 356.9179 0006621 163.1022 197.0186 15.36047823  4455
