CCSDS_OMM_VERS = 2.0
CREATION_DATE  = 
ORIGINATOR     = 

OBJECT_NAME    = KUIPER-00221
OBJECT_ID      = 2025-301Q
CENTER_NAME    = EARTH
REF_FRAME      = TEME
TIME_SYSTEM    = UTC
MEAN_ELEMENT_THEORY = SGP/SGP4

EPOCH          = 2026-01-08T06:06:33.672960
MEAN_MOTION    = 15.36234817
ECCENTRICITY   = .0005
INCLINATION    = 51.8719
RA_OF_ASC_NODE = 357.2069
ARG_OF_PERICENTER = 151.6369
MEAN_ANOMALY   = 208.4890

EPHEMERIS_TYPE = 0
CLASSIFICATION_TYPE = U
NORAD_CAT_ID   = 67147
ELEMENT_SET_NO = 999
REV_AT_EPOCH   = 444
BSTAR          = .52123665E-3
MEAN_MOTION_DOT = .18357E-3
MEAN_MOTION_DDOT = 0

CCSDS_OMM_VERS = 2.0
CREATION_DATE  = 
ORIGINATOR     = 

OBJECT_NAME    = KUIPER-00232
OBJECT_ID      = 2025-301R
CENTER_NAME    = EARTH
REF_FRAME      = TEME
TIME_SYSTEM    = UTC
MEAN_ELEMENT_THEORY = SGP/SGP4

EPOCH          = 2026-01-08T05:45:53.661024
MEAN_MOTION    = 15.37116304
ECCENTRICITY   = .00023245
INCLINATION    = 51.8744
RA_OF_ASC_NODE = 357.1120
ARG_OF_PERICENTER = 83.6886
MEAN_ANOMALY   = 276.4365

EPHEMERIS_TYPE = 0
CLASSIFICATION_TYPE = U
NORAD_CAT_ID   = 67148
ELEMENT_SET_NO = 999
REV_AT_EPOCH   = 444
BSTAR          = .85349129E-3
MEAN_MOTION_DOT = .31233E-3
MEAN_MOTION_DDOT = 0

CCSDS_OMM_VERS = 2.0
CREATION_DATE  = 
ORIGINATOR     = 

OBJECT_NAME    = KUIPER-00241
OBJECT_ID      = 2025-301S
CENTER_NAME    = EARTH
REF_FRAME      = TEME
TIME_SYSTEM    = UTC
MEAN_ELEMENT_THEORY = SGP/SGP4

EPOCH          = 2026-01-08T05:55:33.455136
MEAN_MOTION    = 15.36706035
ECCENTRICITY   = .00028408
INCLINATION    = 51.8741
RA_OF_ASC_NODE = 357.1548
ARG_OF_PERICENTER = 127.2673
MEAN_ANOMALY   = 232.8573

EPHEMERIS_TYPE = 0
CLASSIFICATION_TYPE = U
NORAD_CAT_ID   = 67149
ELEMENT_SET_NO = 999
REV_AT_EPOCH   = 477
BSTAR          = .52929749E-3
MEAN_MOTION_DOT = .18934E-3
MEAN_MOTION_DDOT = 0

CCSDS_OMM_VERS = 2.0
CREATION_DATE  = 
ORIGINATOR     = 

OBJECT_NAME    = KUIPER-00245
OBJECT_ID      = 2025-301T
CENTER_NAME    = EARTH
REF_FRAME      = TEME
TIME_SYSTEM    = UTC
MEAN_ELEMENT_THEORY = SGP/SGP4

EPOCH          = 2026-01-08T06:00:02.999808
MEAN_MOTION    = 15.30888287
ECCENTRICITY   = .00072943
INCLINATION    = 51.8748
RA_OF_ASC_NODE = 357.3161
ARG_OF_PERICENTER = 162.6158
MEAN_ANOMALY   = 119.1800

EPHEMERIS_TYPE = 0
CLASSIFICATION_TYPE = U
NORAD_CAT_ID   = 67150
ELEMENT_SET_NO = 999
REV_AT_EPOCH   = 392
BSTAR          = -.2398915E-1
MEAN_MOTION_DOT = -.674794E-2
MEAN_MOTION_DDOT = 0

CCSDS_OMM_VERS = 2.0
CREATION_DATE  = 
ORIGINATOR     = 

OBJECT_NAME    = KUIPER-00246
OBJECT_ID      = 2025-301U
CENTER_NAME    = EARTH
REF_FRAME      = TEME
TIME_SYSTEM    = UTC
MEAN_ELEMENT_THEORY = SGP/SGP4

EPOCH          = 2026-01-08T06:01:42.078144
MEAN_MOTION    = 15.36445549
ECCENTRICITY   = .00040158
INCLINATION    = 51.8734
RA_OF_ASC_NODE = 357.1842
ARG_OF_PERICENTER = 149.9889
MEAN_ANOMALY   = 210.1328

EPHEMERIS_TYPE = 0
CLASSIFICATION_TYPE = U
NORAD_CAT_ID   = 67151
ELEMENT_SET_NO = 999
REV_AT_EPOCH   = 446
BSTAR          = .5322388E-3
MEAN_MOTION_DOT = .18881E-3
MEAN_MOTION_DDOT = 0

CCSDS_OMM_VERS = 2.0
CREATION_DATE  = 
ORIGINATOR     = 

OBJECT_NAME    = KUIPER-00247
OBJECT_ID      = 2025-301V
CENTER_NAME    = EARTH
REF_FRAME      = TEME
TIME_SYSTEM    = UTC
MEAN_ELEMENT_THEORY = SGP/SGP4

EPOCH          = 2026-01-08T06:44:05.784000
MEAN_MOTION    = 15.34434766
ECCENTRICITY   = .00111534
INCLINATION    = 51.8650
RA_OF_ASC_NODE = 357.3647
ARG_OF_PERICENTER = 193.4871
MEAN_ANOMALY   = 166.5818

EPHEMERIS_TYPE = 0
CLASSIFICATION_TYPE = U
NORAD_CAT_ID   = 67152
ELEMENT_SET_NO = 999
REV_AT_EPOCH   = 444
BSTAR          = .70957918E-3
MEAN_MOTION_DOT = .23762E-3
MEAN_MOTION_DDOT = 0

CCSDS_OMM_VERS = 2.0
CREATION_DATE  = 
ORIGINATOR     = 

OBJECT_NAME    = KUIPER-00248
OBJECT_ID      = 2025-301W
CENTER_NAME    = EARTH
REF_FRAME      = TEME
TIME_SYSTEM    = UTC
MEAN_ELEMENT_THEORY = SGP/SGP4

EPOCH          = 2026-01-08T06:28:26.886432
MEAN_MOTION    = 15.35187449
ECCENTRICITY   = .00084217
INCLINATION    = 51.8689
RA_OF_ASC_NODE = 357.3011
ARG_OF_PERICENTER = 178.3819
MEAN_ANOMALY   = 181.7195

EPHEMERIS_TYPE = 0
CLASSIFICATION_TYPE = U
NORAD_CAT_ID   = 67153
ELEMENT_SET_NO = 999
REV_AT_EPOCH   = 461
BSTAR          = .72714762E-3
MEAN_MOTION_DOT = .24942E-3
MEAN_MOTION_DDOT = 0

CCSDS_OMM_VERS = 2.0
CREATION_DATE  = 
ORIGINATOR     = 

OBJECT_NAME    = KUIPER-00249
OBJECT_ID      = 2025-301X
CENTER_NAME    = EARTH
REF_FRAME      = TEME
TIME_SYSTEM    = UTC
MEAN_ELEMENT_THEORY = SGP/SGP4

EPOCH          = 2026-01-08T06:24:37.065024
MEAN_MOTION    = 15.35542301
ECCENTRICITY   = .00084487
INCLINATION    = 51.8663
RA_OF_ASC_NODE = 357.2817
ARG_OF_PERICENTER = 177.2166
MEAN_ANOMALY   = 182.8868

EPHEMERIS_TYPE = 0
CLASSIFICATION_TYPE = U
NORAD_CAT_ID   = 67154
ELEMENT_SET_NO = 999
REV_AT_EPOCH   = 444
BSTAR          = .72969044E-3
MEAN_MOTION_DOT = .25321E-3
MEAN_MOTION_DDOT = 0

CCSDS_OMM_VERS = 2.0
CREATION_DATE  = 
ORIGINATOR     = 

OBJECT_NAME    = KUIPER-00250
OBJECT_ID      = 2025-301Y
CENTER_NAME    = EARTH
REF_FRAME      = TEME
TIME_SYSTEM    = UTC
MEAN_ELEMENT_THEORY = SGP/SGP4

EPOCH          = 2026-01-08T06:13:34.082400
MEAN_MOTION    = 15.36054168
ECCENTRICITY   = .00066442
INCLINATION    = 51.8718
RA_OF_ASC_NODE = 357.2380
ARG_OF_PERICENTER = 166.4240
MEAN_ANOMALY   = 193.6926

EPHEMERIS_TYPE = 0
CLASSIFICATION_TYPE = U
NORAD_CAT_ID   = 67155
ELEMENT_SET_NO = 999
REV_AT_EPOCH   = 447
BSTAR          = .72698321E-3
MEAN_MOTION_DOT = .25638E-3
MEAN_MOTION_DDOT = 0

CCSDS_OMM_VERS = 2.0
CREATION_DATE  = 
ORIGINATOR     = 

OBJECT_NAME    = KUIPER-00251
OBJECT_ID      = 2025-301Z
CENTER_NAME    = EARTH
REF_FRAME      = TEME
TIME_SYSTEM    = UTC
MEAN_ELEMENT_THEORY = SGP/SGP4

EPOCH          = 2026-01-08T06:27:38.571552
MEAN_MOTION    = 15.35150846
ECCENTRICITY   = .00089978
INCLINATION    = 51.8676
RA_OF_ASC_NODE = 357.2959
ARG_OF_PERICENTER = 175.0904
MEAN_ANOMALY   = 185.0171

EPHEMERIS_TYPE = 0
CLASSIFICATION_TYPE = U
NORAD_CAT_ID   = 67156
ELEMENT_SET_NO = 999
REV_AT_EPOCH   = 463
BSTAR          = .55164596E-3
MEAN_MOTION_DOT = .18794E-3
MEAN_MOTION_DDOT = 0

CCSDS_OMM_VERS = 2.0
CREATION_DATE  = 
ORIGINATOR     = 

OBJECT_NAME    = KUIPER-00252
OBJECT_ID      = 2025-301AA
CENTER_NAME    = EARTH
REF_FRAME      = TEME
TIME_SYSTEM    = UTC
MEAN_ELEMENT_THEORY = SGP/SGP4

EPOCH          = 2026-01-08T06:37:46.419744
MEAN_MOTION    = 15.34819445
ECCENTRICITY   = .00097961
INCLINATION    = 51.8673
RA_OF_ASC_NODE = 357.3398
ARG_OF_PERICENTER = 187.6363
MEAN_ANOMALY   = 172.4475

EPHEMERIS_TYPE = 0
CLASSIFICATION_TYPE = U
NORAD_CAT_ID   = 67157
ELEMENT_SET_NO = 999
REV_AT_EPOCH   = 444
BSTAR          = .54072297E-3
MEAN_MOTION_DOT = .1822E-3
MEAN_MOTION_DDOT = 0

CCSDS_OMM_VERS = 2.0
CREATION_DATE  = 
ORIGINATOR     = 

OBJECT_NAME    = KUIPER-00261
OBJECT_ID      = 2025-301AB
CENTER_NAME    = EARTH
REF_FRAME      = TEME
TIME_SYSTEM    = UTC
MEAN_ELEMENT_THEORY = SGP/SGP4

EPOCH          = 2026-01-08T07:46:03.232128
MEAN_MOTION    = 15.36047823
ECCENTRICITY   = .00066211
INCLINATION    = 51.8701
RA_OF_ASC_NODE = 356.9179
ARG_OF_PERICENTER = 163.1022
MEAN_ANOMALY   = 197.0186

EPHEMERIS_TYPE = 0
CLASSIFICATION_TYPE = U
NORAD_CAT_ID   = 67158
ELEMENT_SET_NO = 999
REV_AT_EPOCH   = 445
BSTAR          = .26711099E-3
MEAN_MOTION_DOT = .9151E-4
MEAN_MOTION_DDOT = 0

